NORAD_CAT_ID,OBJECT_NAME,OBJECT_TYPE,EPOCH,MEAN_MOTION,ECCENTRICITY,INCLINATION,RA_OF_ASC_NODE,ARG_OF_PERICENTER,MEAN_ANOMALY,BSTAR,MEAN_MOTION_DOT,MEAN_MOTION_DDOT,TLE_LINE0,TLE_LINE1,TLE_LINE2,SEMIMAJOR_AXIS,PERIOD,APOGEE,PERIGEE,DECAYED
52566.0,STARLINK-3938,PAYLOAD,2023-03-29 22:22:23,15.08858797,8.95e-05,53.213,283.3834,108.3256,251.7833,0.00054751,8.441e-05,0.0,0 STARLINK-3938,1 52566U 22051AK  23088.93222027  .00008441  00000-0  54751-3 0  9994,2 52566  53.2130 283.3834 0000895 108.3256 251.7833 15.08858797 49042,6917.823,95.436,540.307,539.069,0.0
52566.0,STARLINK-3938,PAYLOAD,2023-03-30 06:19:19,15.08844467,8.95e-05,53.2126,281.8962,109.1206,250.9883,0.00041402,6.308e-05,0.0,0 STARLINK-3938,1 52566U 22051AK  23089.26342355  .00006308  00000-0  41402-3 0  9997,2 52566  53.2126 281.8962 0000895 109.1206 250.9883 15.08844467 49096,6917.867,95.437,540.351,539.113,0.0
52566.0,STARLINK-3938,PAYLOAD,2023-03-30 19:02:24,15.08841267,0.0001066,53.2129,279.5153,119.8054,240.3044,0.00094792,0.00014831,0.0,0 STARLINK-3938,1 52566U 22051AK  23089.79334420  .00014831  00000-0  94792-3 0  9999,2 52566  53.2129 279.5153 0001066 119.8054 240.3044 15.08841267 49104,6917.877,95.437,540.479,539.004,0.0
52566.0,STARLINK-3938,PAYLOAD,2023-03-31 06:10:07,15.08842395,0.000107,53.2134,277.4384,67.9176,292.1929,0.00061594,9.529e-05,0.0,0 STARLINK-3938,1 52566U 22051AK  23090.25702635  .00009529  00000-0  61594-3 0  9991,2 52566  53.2134 277.4384 0001070  67.9176 292.1929 15.08842395 49241,6917.873,95.437,540.478,538.998,0.0
52566.0,STARLINK-3938,PAYLOAD,2023-04-01 12:22:26,15.08839015,0.0001273,53.2125,271.7899,53.9374,306.1736,0.00025722,3.808e-05,0.0,0 STARLINK-3938,1 52566U 22051AK  23091.51558900  .00003808  00000-0  25722-3 0  9992,2 52566  53.2125 271.7899 0001273  53.9374 306.1736 15.08839015 49437,6917.883,95.438,540.629,538.868,0.0
52566.0,STARLINK-3938,PAYLOAD,2023-04-01 18:43:59,15.08833277,0.0001076,53.215,270.5989,80.3638,279.7476,7.4333e-05,8.95e-06,0.0,0 STARLINK-3938,1 52566U 22051AK  23091.78055031  .00000895  00000-0  74333-4 0  9994,2 52566  53.2150 270.5989 0001076  80.3638 279.7476 15.08833277 49407,6917.901,95.438,540.51,539.022,0.0
52566.0,STARLINK-3938,PAYLOAD,2023-04-02 04:16:18,15.08826252,0.0001001,53.2137,268.8138,79.0191,281.0914,0.00034473,5.201e-05,0.0,0 STARLINK-3938,1 52566U 22051AK  23092.17799548  .00005201  00000-0  34473-3 0  9992,2 52566  53.2137 268.8138 0001001  79.0191 281.0914 15.08826252 49537,6917.922,95.438,540.48,539.095,0.0
52566.0,STARLINK-3938,PAYLOAD,2023-04-02 10:37:51,15.08835975,9.95e-05,53.2131,267.6226,68.8105,291.2993,0.00035963,5.44e-05,0.0,0 STARLINK-3938,1 52566U 22051AK  23092.44295413  .00005440  00000-0  35963-3 0  9994,2 52566  53.2131 267.6226 0000995  68.8105 291.2993 15.08835975 49507,6917.893,95.438,540.446,539.069,0.0
52566.0,STARLINK-3938,PAYLOAD,2023-04-02 15:24:00,15.08847644,0.0001281,53.2139,266.7324,91.8396,268.2743,0.00067129,0.00010414,0.0,0 STARLINK-3938,1 52566U 22051AK  23092.64167193  .00010414  00000-0  67129-3 0  9995,2 52566  53.2139 266.7324 0001281  91.8396 268.2743 15.08847644 49605,6917.857,95.437,540.608,538.836,0.0
52566.0,STARLINK-3938,PAYLOAD,2023-04-02 18:34:46,15.08859283,0.0001006,53.2129,266.137,75.5561,284.5543,0.00095788,0.00014998,0.0,0 STARLINK-3938,1 52566U 22051AK  23092.77415005  .00014998  00000-0  95788-3 0  9990,2 52566  53.2129 266.1370 0001006  75.5561 284.5543 15.08859283 49552,6917.821,95.436,540.382,538.991,0.0
52566.0,STARLINK-3938,PAYLOAD,2023-04-03 12:04:01,15.08835246,0.0001312,53.2136,262.8657,80.1773,279.9367,-0.00032002,-5.377e-05,0.0,0 STARLINK-3938,1 52566U 22051AK  23093.50279098 -.00005377  00000-0 -32002-3 0  9995,2 52566  53.2136 262.8657 0001312  80.1773 279.9367 15.08835246 49733,6917.895,95.438,540.668,538.852,0.0
52566.0,STARLINK-3938,PAYLOAD,2023-04-03 18:25:33,15.08841094,0.0001296,53.214,261.6772,84.9437,275.1703,2.7475e-05,1.49e-06,0.0,0 STARLINK-3938,1 52566U 22051AK  23093.76775117  .00000149  00000-0  27475-4 0  9995,2 52566  53.2140 261.6772 0001296  84.9437 275.1703 15.08841094 49700,6917.877,95.437,540.639,538.845,0.0
52566.0,STARLINK-3938,PAYLOAD,2023-04-04 11:54:48,15.08845011,9.02e-05,53.2134,258.4052,72.1316,287.9774,0.00015115,2.119e-05,0.0,0 STARLINK-3938,1 52566U 22051AK  23094.49638955  .00002119  00000-0  15115-3 0  9990,2 52566  53.2134 258.4052 0000902  72.1316 287.9774 15.08845011 49887,6917.865,95.437,540.354,539.106,0.0
52566.0,STARLINK-3938,PAYLOAD,2023-04-05 11:45:35,15.08840032,0.0001025,53.2118,253.9429,62.7155,297.3941,0.0001491,2.086e-05,0.0,0 STARLINK-3938,1 52566U 22051AK  23095.48999265  .00002086  00000-0  14910-3 0  9999,2 52566  53.2118 253.9429 0001025  62.7155 297.3941 15.08840032 49968,6917.88,95.438,540.454,539.036,0.0
52566.0,STARLINK-3938,PAYLOAD,2023-04-05 14:56:21,15.08838307,0.000114,53.211,253.347,62.3137,297.797,0.00019345,2.792e-05,0.0,0 STARLINK-3938,1 52566U 22051AK  23095.62247422  .00002792  00000-0  19345-3 0  9997,2 52566  53.2110 253.3470 0001140  62.3137 297.7970 15.08838307 50054,6917.886,95.438,540.539,538.962,0.0
52566.0,STARLINK-3938,PAYLOAD,2023-04-05 18:07:08,15.08839877,0.0001199,53.2129,252.7533,64.1546,295.957,0.00015871,2.239e-05,0.0,0 STARLINK-3938,1 52566U 22051AK  23095.75495422  .00002239  00000-0  15871-3 0  9992,2 52566  53.2129 252.7533 0001199  64.1546 295.9570 15.08839877 50009,6917.881,95.438,540.575,538.916,0.0
52566.0,STARLINK-3938,PAYLOAD,2023-04-06 10:00:59,15.08832581,0.0001267,53.2165,249.7826,79.7812,280.3323,0.00023953,3.526e-05,0.0,0 STARLINK-3938,1 52566U 22051AK  23096.41735970  .00003526  00000-0  23953-3 0  9991,2 52566  53.2165 249.7826 0001267  79.7812 280.3323 15.08832581 50171,6917.903,95.438,540.645,538.892,0.0
52566.0,STARLINK-3938,PAYLOAD,2023-04-06 16:22:31,15.08843688,0.0001207,53.2148,248.5918,80.5679,279.5449,0.00011113,1.481e-05,0.0,0 STARLINK-3938,1 52566U 22051AK  23096.68231211  .00001481  00000-0  11113-3 0  9992,2 52566  53.2148 248.5918 0001207  80.5679 279.5449 15.08843688 50210,6917.869,95.437,540.569,538.899,0.0
52566.0,STARLINK-3938,PAYLOAD,2023-04-07 13:02:32,15.08853024,0.0001096,53.2138,244.7268,73.8989,286.2123,-0.00017351,-3.049e-05,0.0,0 STARLINK-3938,1 52566U 22051AK  23097.54342817 -.00003049  00000-0 -17351-3 0  9997,2 52566  53.2138 244.7268 0001096  73.8989 286.2123 15.08853024 50275,6917.841,95.437,540.464,538.947,0.0
52566.0,STARLINK-3938,PAYLOAD,2023-04-08 03:21:00,15.08840111,7.38e-05,53.2141,242.0528,71.235,288.8722,5.7882e-05,6.34e-06,0.0,0 STARLINK-3938,1 52566U 22051AK  23098.13959416  .00000634  00000-0  57882-4 0  9991,2 52566  53.2141 242.0528 0000738  71.2350 288.8722 15.08840111 50439,6917.88,95.438,540.256,539.235,0.0
52566.0,STARLINK-3938,PAYLOAD,2023-04-08 12:53:20,15.08835981,0.0001081,53.2142,240.2663,90.0818,270.0298,3.4642e-05,2.64e-06,0.0,0 STARLINK-3938,1 52566U 22051AK  23098.53703947  .00000264  00000-0  34642-4 0  9999,2 52566  53.2142 240.2663 0001081  90.0818 270.0298 15.08835981 50429,6917.893,95.438,540.505,539.01,0.0
52566.0,STARLINK-3938,PAYLOAD,2023-04-09 09:33:21,15.08831485,7.11e-05,53.2149,236.4006,65.4064,294.7002,-1.4097e-05,-5.12e-06,0.0,0 STARLINK-3938,1 52566U 22051AK  23099.39816495 -.00000512  00000-0 -14097-4 0  9997,2 52566  53.2149 236.4006 0000711  65.4064 294.7002 15.08831485 50625,6917.906,95.438,540.263,539.28,0.0
52566.0,STARLINK-3938,PAYLOAD,2023-04-09 15:54:53,15.08838775,8.02e-05,53.215,235.2104,75.1133,284.9948,2.031e-05,3.6e-07,0.0,0 STARLINK-3938,1 52566U 22051AK  23099.66312022  .00000036  00000-0  20310-4 0  9998,2 52566  53.2150 235.2104 0000802  75.1133 284.9948 15.08838775 50662,6917.884,95.438,540.304,539.194,0.0
52566.0,STARLINK-3938,PAYLOAD,2023-04-10 09:24:07,15.08842246,8.59e-05,53.2146,231.9392,80.5476,279.5613,0.00019415,2.804e-05,0.0,0 STARLINK-3938,1 52566U 22051AK  23100.39175917  .00002804  00000-0  19415-3 0  9999,2 52566  53.2146 231.9392 0000859  80.5476 279.5613 15.08842246 50703,6917.874,95.437,540.333,539.144,0.0
52566.0,STARLINK-3938,PAYLOAD,2023-04-10 15:45:39,15.08855002,5.92e-05,53.2148,230.7485,78.0503,282.0555,0.00033499,5.05e-05,0.0,0 STARLINK-3938,1 52566U 22051AK  23100.65671031  .00005050  00000-0  33499-3 0  9990,2 52566  53.2148 230.7485 0000592  78.0503 282.0555 15.08855002 50812,6917.835,95.437,540.109,539.29,0.0
52566.0,STARLINK-3938,PAYLOAD,2023-04-10 18:56:25,15.08859002,9.48e-05,53.2142,230.1536,86.937,273.1731,0.0003365,5.074e-05,0.0,0 STARLINK-3938,1 52566U 22051AK  23100.78918717  .00005074  00000-0  33650-3 0  9994,2 52566  53.2142 230.1536 0000948  86.9370 273.1731 15.08859002 50767,6917.822,95.436,540.343,539.031,0.0
52566.0,STARLINK-3938,PAYLOAD,2023-04-11 12:25:41,15.08838074,9.61e-05,53.2143,226.8838,81.2998,278.8103,5.5297e-05,5.92e-06,0.0,0 STARLINK-3938,1 52566U 22051AK  23101.51783812  .00000592  00000-0  55297-4 0  9994,2 52566  53.2143 226.8838 0000961  81.2998 278.8103 15.08838074 50877,6917.886,95.438,540.416,539.086,0.0
52566.0,STARLINK-3938,PAYLOAD,2023-04-12 12:16:28,15.08839722,8.44e-05,53.2134,222.4238,88.6528,271.4561,3.3961e-05,2.53e-06,0.0,0 STARLINK-3938,1 52566U 22051AK  23102.51143646  .00000253  00000-0  33961-4 0  9998,2 52566  53.2134 222.4238 0000844  88.6528 271.4561 15.08839722 51029,6917.881,95.438,540.33,539.162,0.0
52566.0,STARLINK-3938,PAYLOAD,2023-04-13 07:21:05,15.08839822,0.0001455,53.2141,218.8563,72.8546,287.2605,0.00016565,2.349e-05,0.0,0 STARLINK-3938,1 52566U 22051AK  23103.30631887  .00002349  00000-0  16565-3 0  9993,2 52566  53.2141 218.8563 0001455  72.8546 287.2605 15.08839822 51149,6917.881,95.438,540.752,538.739,0.0
52566.0,STARLINK-3938,PAYLOAD,2023-04-14 11:58:02,15.08841515,0.0001396,53.2121,213.5024,81.126,278.989,7.0656e-05,8.37e-06,0.0,0 STARLINK-3938,1 52566U 22051AK  23104.49863808  .00000837  00000-0  70656-4 0  9996,2 52566  53.2121 213.5024 0001396  81.1260 278.9890 15.08841515 51326,6917.876,95.437,540.706,538.775,0.0
